STARLINK-31745          
1 60329U 24136A   26160.30486255  .00001932  00000+0  74035-4 0  9991
2 60329  53.1622   9.9597 0001326  91.2739 268.8414 15.31694516104901
STARLINK-32153          
1 60330U 24136B   26159.89126739  .00002479  00000+0  95808-4 0  9991
2 60330  53.1621  12.3545 0001431  98.2894 261.8269 15.30198864103622
STARLINK-32203          
1 60331U 24136C   26160.28457786  .00002805  00000+0  94170-4 0  9990
2 60331  53.1616 359.8879 0001212  89.1745 270.9396 15.34384063103834
STARLINK-32171          
1 60332U 24136D   26160.50003471  .00053366  00000+0  17202-2 0  9991
2 60332  53.1599   8.9548 0001188 103.1184 305.2803 15.31681042  5803
STARLINK-32133          
1 60333U 24136E   26159.88493526  .00003245  00000+0  12170-3 0  9996
2 60333  53.1623  12.3164 0001531 116.5954 243.5204 15.30187580103625
STARLINK-32132          
1 60334U 24136F   26159.87860202  .00002508  00000+0  96832-4 0  9994
2 60334  53.1623  12.2742 0001391 102.4291 257.6866 15.30185847103623
STARLINK-32168          
1 60335U 24136G   26159.87543230  .00002754  00000+0  10506-3 0  9990
2 60335  53.1626  12.2546 0000958  96.7071 263.4039 15.30203507103629
STARLINK-32079          
1 60336U 24136H   26159.87227531  .00000856  00000+0  41033-4 0  9995
2 60336  53.1620  12.2332 0001225  89.7690 270.3451 15.30193404103623
STARLINK-32078          
1 60338U 24136K   26159.86805137  .00002403  00000+0  93273-4 0  9993
2 60338  53.1610  12.2053 0001569  86.7706 273.3474 15.30187331103620
STARLINK-32175          
1 60339U 24136L   26159.86594122  .00002005  00000+0  79832-4 0  9996
2 60339  53.1620  12.1917 0001488  84.8539 275.2632 15.30191237103620
STARLINK-32176          
1 60340U 24136M   26160.31997698  .00003418  00000+0  12750-3 0  9999
2 60340  53.1616  10.0476 0001402  84.7164 275.3997 15.30190601104869
STARLINK-32185          
1 60341U 24136N   26160.31259105  .00001571  00000+0  65166-4 0  9992
2 60341  53.1613   9.9990 0000929  84.2490 275.8617 15.30190488103692
STARLINK-32221          
1 60342U 24136P   26160.31575682  .00002178  00000+0  85678-4 0  9998
2 60342  53.1613  10.0197 0001303  79.3314 280.7834 15.30187125103692
STARLINK-32083          
1 60343U 24136Q   26160.31681087 -.00001484  00000+0 -38000-4 0  9994
2 60343  53.1604   9.9916 0001132  84.6614 275.4516 15.30190237103697
STARLINK-32077          
1 60344U 24136R   26160.30944907 -.00001520  00000+0 -39248-4 0  9993
2 60344  53.1625   9.9833 0001259  91.7909 268.3236 15.30164409103697
STARLINK-32075          
1 60345U 24136S   26160.30519828  .00006796  00000+0  24166-3 0  9994
2 60345  53.1609   9.9532 0001378  94.3667 265.7491 15.30159116103691
STARLINK-32082          
1 60346U 24136T   26160.30627441  .00001195  00000+0  52493-4 0  9999
2 60346  53.1629   9.9588 0001492  96.6422 263.4748 15.30177095103692
STARLINK-32084          
1 60347U 24136U   26159.89935327  .00009872  00000+0  32993-3 0  9999
2 60347  53.1605  11.6891 0001342 101.0522 259.0631 15.31655415103634
STARLINK-32081          
1 60348U 24136V   26159.88535282  .00002640  00000+0  96820-4 0  9991
2 60348  53.1621  11.6035 0001486 108.4886 251.6277 15.31696440103633
STARLINK-32181          
1 60349U 24136W   26160.29892890 -.00003516  00000+0 -93039-4 0  9994
2 60349  53.1615   8.4988 0001133  83.5082 276.6049 15.34378378103711
STARLINK-32076          
1 60350U 24136X   26159.88069094  .00007404  00000+0  25009-3 0  9990
2 60350  53.1613  11.5726 0001319 101.4252 258.6897 15.31701562103635
STARLINK-32097          
1 60351U 24136Y   26160.29681740 -.00000745  00000+0 -10914-4 0  9999
2 60351  53.1610   8.4818 0001289  99.5108 260.6040 15.34370377103714
STRIX-4                 
1 60352U 24137A   26160.46356332  .00017760  00000+0  56211-3 0  9998
2 60352  43.0167 328.9466 0018605 255.5000 104.3790 15.32303488102839
STARLINK-32285          
1 60355U 24138A   26160.53084494  .00001484  00000+0  62252-4 0  9996
2 60355  53.1606 242.6772 0001187  80.0145 280.0990 15.30179054104690
STARLINK-32278          
1 60356U 24138B   26160.52778471  .00007800  00000+0  27547-3 0  9996
2 60356  53.1601 243.3597 0001159 106.9784 253.1344 15.30167085104689
STARLINK-32287          
1 60358U 24138D   26160.52462377  .00000728  00000+0  36723-4 0  9992
2 60358  53.1595 243.3501 0001055  70.7109 289.4006 15.30173878104686
STARLINK-32290          
1 60359U 24138E   26160.52672221  .00006215  00000+0  22175-3 0  9996
2 60359  53.1572 243.3643 0001493  96.5882 263.5289 15.30208481 85716
STARLINK-32275          
1 60360U 24138F   26160.52084791  .00012816  00000+0  42366-3 0  9995
2 60360  53.1572 242.6123 0001242  75.9288 284.1851 15.31728966104695
STARLINK-32227          
1 60361U 24138G   26160.52038686  .00001438  00000+0  60685-4 0  9991
2 60361  53.1587 243.3073 0001339  63.9926 296.1212 15.30197380104690
STARLINK-32256          
1 60362U 24138H   26160.52567083  .00002168  00000+0  85317-4 0  9990
2 60362  53.1592 243.3466 0001325 112.3668 247.7473 15.30191100104673
