OBJECT_NAME,OBJECT_ID,EPOCH,MEAN_MOTION,ECCENTRICITY,INCLINATION,RA_OF_ASC_NODE,ARG_OF_PERICENTER,MEAN_ANOMALY,EPHEMERIS_TYPE,CLASSIFICATION_TYPE,NORAD_CAT_ID,ELEMENT_SET_NO,REV_AT_EPOCH,BSTAR,MEAN_MOTION_DOT,MEAN_MOTION_DDOT
STARLINK-31745,2024-136A,2026-06-09T07:19:00.124320,15.31694516,.0001326,53.1622,9.9597,91.2739,268.8414,0,U,60329,999,10490,.74035E-4,.1932E-4,0
STARLINK-32153,2024-136B,2026-06-08T21:23:25.502496,15.30198864,.00014318,53.1621,12.3545,98.2894,261.8269,0,U,60330,999,10362,.95808468E-4,.2479E-4,0
STARLINK-32203,2024-136C,2026-06-09T06:49:47.527104,15.34384063,.0001212,53.1616,359.8879,89.1745,270.9396,0,U,60331,999,10383,.9417E-4,.2805E-4,0
STARLINK-32171,2024-136D,2026-06-09T12:00:02.998944,15.31681042,.0001188,53.1599,8.9548,103.1184,305.2803,0,U,60332,999,580,.17202E-2,.53366E-3,0
STARLINK-32133,2024-136E,2026-06-08T21:14:18.406464,15.30187580,.00015319,53.1623,12.3164,116.5954,243.5204,0,U,60333,999,10362,.12169763E-3,.3245E-4,0
STARLINK-32132,2024-136F,2026-06-08T21:05:11.214528,15.30185847,.00013916,53.1623,12.2742,102.4291,257.6866,0,U,60334,999,10362,.9683178E-4,.2508E-4,0
STARLINK-32168,2024-136G,2026-06-08T21:00:37.350720,15.30203507,.00009587,53.1626,12.2546,96.7071,263.4039,0,U,60335,999,10362,.10505827E-3,.2754E-4,0
STARLINK-32079,2024-136H,2026-06-08T20:56:04.586784,15.30193404,.00012259,53.1620,12.2332,89.7690,270.3451,0,U,60336,999,10362,.41033111E-4,.856E-5,0
STARLINK-32078,2024-136K,2026-06-08T20:49:59.638368,15.30187331,.00015691,53.1610,12.2053,86.7706,273.3474,0,U,60338,999,10362,.93272734E-4,.2403E-4,0
STARLINK-32175,2024-136L,2026-06-08T20:46:57.321408,15.30191237,.00014883,53.1620,12.1917,84.8539,275.2632,0,U,60339,999,10362,.7983181E-4,.2005E-4,0
STARLINK-32176,2024-136M,2026-06-09T07:40:46.011072,15.30190601,.0001402,53.1616,10.0476,84.7164,275.3997,0,U,60340,999,10486,.1275E-3,.3418E-4,0
STARLINK-32185,2024-136N,2026-06-09T07:30:07.866720,15.30190488,.0000929,53.1613,9.9990,84.2490,275.8617,0,U,60341,999,10369,.65166E-4,.1571E-4,0
STARLINK-32221,2024-136P,2026-06-09T07:34:41.389248,15.30187125,.0001303,53.1613,10.0197,79.3314,280.7834,0,U,60342,999,10369,.85678E-4,.2178E-4,0
STARLINK-32083,2024-136Q,2026-06-09T07:36:12.459168,15.30190237,.0001132,53.1604,9.9916,84.6614,275.4516,0,U,60343,999,10369,-.38E-4,-.1484E-4,0
STARLINK-32077,2024-136R,2026-06-09T07:25:36.399648,15.30164409,.0001259,53.1625,9.9833,91.7909,268.3236,0,U,60344,999,10369,-.39248E-4,-.152E-4,0
STARLINK-32075,2024-136S,2026-06-09T07:19:29.131392,15.30159116,.0001378,53.1609,9.9532,94.3667,265.7491,0,U,60345,999,10369,.24166E-3,.6796E-4,0
STARLINK-32082,2024-136T,2026-06-09T07:21:02.109024,15.30177095,.0001492,53.1629,9.9588,96.6422,263.4748,0,U,60346,999,10369,.52493E-4,.1195E-4,0
STARLINK-32084,2024-136U,2026-06-08T21:35:04.122528,15.31655415,.0001342,53.1605,11.6891,101.0522,259.0631,0,U,60347,999,10363,.32992958E-3,.9872E-4,0
STARLINK-32081,2024-136V,2026-06-08T21:14:54.483648,15.31696440,.00014862,53.1621,11.6035,108.4886,251.6277,0,U,60348,999,10363,.96819876E-4,.264E-4,0
STARLINK-32181,2024-136W,2026-06-09T07:10:27.456960,15.34378378,.0001133,53.1615,8.4988,83.5082,276.6049,0,U,60349,999,10371,-.93039E-4,-.3516E-4,0
STARLINK-32076,2024-136X,2026-06-08T21:08:11.697216,15.31701562,.00013194,53.1613,11.5726,101.4252,258.6897,0,U,60350,999,10363,.25009078E-3,.7404E-4,0
STARLINK-32097,2024-136Y,2026-06-09T07:07:25.023360,15.34370377,.0001289,53.1610,8.4818,99.5108,260.6040,0,U,60351,999,10371,-.10914E-4,-.745E-5,0
STRIX-4,2024-137A,2026-06-09T11:07:31.870848,15.32303488,.0018605,43.0167,328.9466,255.5000,104.3790,0,U,60352,999,10283,.56211E-3,.1776E-3,0
STARLINK-32285,2024-138A,2026-06-09T12:44:25.002816,15.30179054,.0001187,53.1606,242.6772,80.0145,280.0990,0,U,60355,999,10469,.62252E-4,.1484E-4,0
STARLINK-32278,2024-138B,2026-06-09T12:40:00.598944,15.30167085,.0001159,53.1601,243.3597,106.9784,253.1344,0,U,60356,999,10468,.27547E-3,.78E-4,0
STARLINK-32287,2024-138D,2026-06-09T12:35:27.493728,15.30173878,.0001055,53.1595,243.3501,70.7109,289.4006,0,U,60358,999,10468,.36723E-4,.728E-5,0
STARLINK-32290,2024-138E,2026-06-09T12:38:28.798944,15.30208481,.0001493,53.1572,243.3643,96.5882,263.5289,0,U,60359,999,8571,.22175E-3,.6215E-4,0
STARLINK-32275,2024-138F,2026-06-09T12:30:01.259424,15.31728966,.0001242,53.1572,242.6123,75.9288,284.1851,0,U,60360,999,10469,.42366E-3,.12816E-3,0
STARLINK-32227,2024-138G,2026-06-09T12:29:21.424704,15.30197380,.0001339,53.1587,243.3073,63.9926,296.1212,0,U,60361,999,10469,.60685E-4,.1438E-4,0
STARLINK-32256,2024-138H,2026-06-09T12:36:57.959712,15.30191100,.0001325,53.1592,243.3466,112.3668,247.7473,0,U,60362,999,10467,.85317E-4,.2168E-4,0
